#dP2022 10  1  0  0  0.00000000      96 __u+U ITR00 EXT  IAC
## 2229 518400.00000000   900.00000000 59853 0.0000000000000
+  116   C06C07C08C09C10C11C12C13C14C16C19C20C21C22C23C24C25
+        C26C27C28C29C30C32C33C34C35C36C37C38C39C40C41C42C43
+        C44C45C46E01E02E03E04E05E07E08E09E10E11E12E13E14E15
+        E18E19E21E24E25E26E27E30E31E33E34E36G01G02G03G04G06
+        G07G08G09G10G11G12G13G14G15G16G17G18G19G20G21G22G23
+        G24G25G26G27G28G29G30G31G32J02J03R01R02R03R04R05R07
+        R08R09R11R12R13R14R15R17R18R19R20R21R24R25  0  0  0
++         9  7 10  9  8 10  9  9  9  9  8  8  9  9  9  9  8
++         9  9  8  8  9  7  8  7  7  7  8 11  9  8 10  8 10
++         9  6  9  6  7  7  7  7  8  8  7  8 10 11  9  7  7
++         7  7  8  9  7  8  7  9  8  7  7  8  7  9  6  7  8
++         8  7  8  9  7  8  8  7  7  7  8  8  8  9  8  8  7
++         8  7  7  6  7  8  8  9  7  9  8  8  9  7  9  8  9
++         8  9  7  8  9  7  8  8  8  9 10 10  9 12  0  0  0
%c M  cc GPS ccc cccc cccc cccc cccc ccccc ccccc ccccc ccccc
%c cc cc ccc ccc cccc cccc cccc cccc ccccc ccccc ccccc ccccc
%f  0.0000000  0.000000000  0.00000000000  0.000000000000000
%f  0.0000000  0.000000000  0.00000000000  0.000000000000000
%i    0    0    0    0      0      0      0      0         0
%i    0    0    0    0      0      0      0      0         0
/* IAC                                ULTRA-RAPID PREDICTION
/* S/V CLOCKS ARE ALIGNED TO GNSS TIME                      
/* G:C1WC2W R:C1PC2P E:C1XC5X C:C2IC6I J:C1CC2S             
/* PCV:IGS14_2218 OL/AL:FES2004  NONE     YN ORB:CoN CLK:CoN
*  2022 10 01  4  0  0.00000000
PC06 -12240.250523  40458.226776   1395.155362    908.776899
PC07  -4484.224400  28918.667391 -30262.428916   -214.918970
PC08 -18135.142563  23211.451409  30075.410748    484.494333
PC09  -7385.423160  40970.320609  -7880.747343   -847.755896
PC10   3301.100077  31573.991225 -27225.892841     89.842826
PC11  -1269.850084  27318.658610   5513.230351   -377.544375
PC12 -11711.921643  22347.930260 -11856.679245   -498.970763
PC13  -8693.511531  24488.284139  33257.354759     94.981158
PC14   7871.147507  20896.811044  16714.118725    689.435143
PC16 -14752.585126  39242.727376   5870.707989    133.494141
PC19 -16364.056239 -20759.385310  -8953.218608   -775.025010
PC20    -55.657166 -18386.697025 -20995.964397    868.471793
PC21 -17510.460660   4688.618646  21227.869356   -508.746739
PC22 -23953.834976 -11316.281932   8794.808092   -860.778414
PC23  23600.744548   2156.965236 -14729.902620   -340.742839
PC24 -13160.705694  18055.649320 -16706.027010   -399.139843
PC25   8960.209032  13788.420352 -22552.800346      3.237258
PC26 -24865.761919  12372.405457  -2511.633972    -15.127787
PC27  15127.720104 -14896.622015  18088.118938     29.103255
PC28  15198.206515   5129.618423  22838.324787     19.160895
PC29  -6885.299440 -23194.409725 -13915.101267     20.782728
PC30   5920.001264 -27013.441480   3674.389215      0.251256
PC32  17531.278749  -4758.434244 -21176.098425   -779.035013
PC33  16377.124847  20688.504644   9062.276768   -798.484567
PC34  -5263.510080  27292.196452  -2589.792021      6.777500
PC35 -15124.159486  -6221.019153 -22616.784206     21.388938
PC36  -7972.034410 -14306.430781  22622.315887   -468.735177
PC37  25603.792293 -11062.112883   1290.849762   -365.205017
PC38 -24731.695889  24425.300038  23745.932925     27.984734
PC39 -15220.020656  37838.438933  11100.347145     -0.535267
PC40  -8105.375951  23317.339048 -34144.727154     -5.164190
PC41  23969.901885  11643.962688  -8243.698085   -129.580281
PC42  -1190.255583  17855.767110  21443.173899   -392.329871
PC43   6402.442580  23708.261660  13260.998026     17.169696
PC44 -14763.215064  15233.296148 -18154.479288     67.280317
PC45 -23737.264718  -1842.973558  14542.949327     -4.312065
PC46  11528.344911 -18120.706053  17846.071308     -3.368404
PE01 -14553.215663 -16208.765327  20047.821295   -538.277206
PE02  14769.138538  16158.536308 -19925.723547    327.996383
PE03  12808.808784  26461.640580  -3410.383293   -605.254493
PE04 -19106.144473 -12025.057573  19144.107907  -1127.012875
PE05  -1174.886797  25664.868753  14696.896254   -138.846071
PE07  14241.871792  -9965.529451 -23960.919369   -709.667782
PE08  19038.394263  11933.986128 -19269.691293   -607.813518
PE09 -14160.442356   9783.366216  24076.598132   -677.469180
PE10 -21765.310460   8718.433887 -18066.387104   -480.557063
PE11 -21864.916638  17640.484855  -9337.337956   1990.544786
PE12 -18402.505813  -1036.262240 -23166.513800   -198.204009
PE13  21940.889479 -17112.600064  10105.722735    430.639763
PE14   4088.869327 -24985.184059  11366.347069     14.949643
PE15  18230.797190   1180.315897  23294.256251    716.951253
PE18 -13555.487910  16505.729660 -19957.637106   -913.706255
PE19 -11179.482621 -27391.143598    892.721764  -4386.386725
PE21   6066.701102 -15825.776264  24275.062874   -760.841528
PE24 -25364.412823   5702.983027 -14136.263644   -866.510763
PE25  -6399.118243  15738.434487 -24225.273064   -589.043201
PE26  12114.867069 -25229.293051  -9658.656703  -1675.285971
PE27  24740.439121  -6418.194852  14948.966914   -404.755726
PE30  28427.723698   7314.594704  -3877.386205   -880.123846
PE31 -28664.719828  -6693.048088   3112.270366   -504.739421
PE33  -3780.025321 -18670.359947 -22655.839059   -454.255938
PE34   3985.510590  18525.529915  22726.524891     -7.209824
PE36 -12748.483311  25192.373780   8881.691931   -439.331459
PG01  12187.893298 -21408.155933  -9775.270102    274.866789
PG02 -14260.185852  22202.881866   4458.920459   -644.111714
PG03   7500.738282 -13362.852208 -21807.373238   -358.922340
PG04   2584.644164 -23592.979982 -11819.697457   -110.616222
PG06 -17899.175932   -137.706143 -19585.030637    477.866194
PG07  -2236.820483 -17912.094396  19740.420964    302.970970
PG08   8585.895229 -16472.386439  18803.208346    -86.885922
PG09  -6933.051026 -25586.191613  -1338.214737   -289.196266
PG10  22455.231694  11633.944306   8768.733855     -5.576881
PG11 -21911.571531   9285.359723 -11755.316850    -21.129043
PG12  -8803.610343  12889.323257 -21744.491151   -286.839484
PG13 -13513.243588   8120.546086  21175.920018    397.682494
PG14 -20744.419772 -13359.968386   9984.184893    -99.280576
PG15  -6868.388911  17720.962698  17995.759780    -24.604368
PG16  23594.333229   -843.367268  12335.974027   -525.420083
PG17 -12549.247487 -19926.697728 -11781.572027    664.427669
PG18   2501.480071  16977.381227  20228.398689     30.276616
PG19 -15174.077159 -10514.009886 -19429.181715    217.844861
PG20 -25961.945999   1360.084037   4808.522923    482.036485
PG21  16931.867003 -19929.067406    735.479080    158.710053
PG22  15575.878631   7464.893031 -19808.244922    337.531768
PG23  14152.798053  14917.420710  16872.248863     -0.631002
PG24 -13337.439575  22214.125649  -5024.700651    116.506653
PG25   4787.393027  16266.921656 -20794.425295    377.723834
PG26  26437.219106   3020.307295   2513.070847    230.735990
PG27  14383.249122  -3888.907917  21771.011428    204.843527
PG28 -24477.187717  -9869.685860   1806.543742    333.980416
PG29   3906.407733  26137.239411  -2197.370375   -556.040328
PG30 -12449.847125  -9827.657169  21406.686127   -537.192213
PG31  19179.366753   -379.626801 -18703.126422   -195.238327
PG32  15153.388614  16835.900000 -13878.131256   -249.499919
PJ02 -30981.919766  15434.393951 -19465.207027     -6.187464
PJ03 -23657.537478  32048.818928  -9153.704786     -2.266400
PR01   3396.097196  17023.721535  18681.331878     15.566207
PR02  15773.041199  19985.193365   2123.666196    -22.833898
PR03  18187.962741  10441.683936 -14527.556740     64.677310
PR04  10236.854493  -4503.659678 -22905.573960    159.537809
PR05  -3116.041307 -17071.626100 -18678.685755    100.502587
PR07 -17987.821069  -9734.936347  15238.674846     41.840602
PR08 -10197.039359   4808.963806  22928.770242    -67.446623
PR09 -12229.866029  -7943.908290  20969.193316     79.614242
PR11 -22694.498994   8596.429430  -7867.012986     25.865549
PR12  -7321.143677  11879.168327 -21318.533307     21.685156
PR13  10564.865463   8379.886469 -21661.433390    -27.355282
PR14  24008.300565   -701.137944  -8546.931029     24.228086
PR15  22262.678384  -8769.966684   8858.520600     93.448229
PR17  11055.907234     23.958710  23000.233963    565.325937
PR18  12917.309735 -16219.417486  14844.295305     44.975565
PR19   9351.401842 -23740.426212    131.278093   -205.643460
PR20  -1756.439110 -17671.315987 -18289.348779    -79.383554
PR21 -11421.511196   1559.151171 -22749.555647   -337.999274
PR24   3008.265671  17245.079103  18559.310447    117.705894
PR25 -13715.395509  16235.850855 -14083.770866     13.774680
EOF
